{
    "links": {
        "self": "http://www.neowsapp.com/rest/v1/neo/54016201?api_key=iIulBulltgU6a56xZRHN4H3l9WmuAYTsLGpBGhQ2"
    },
    "id": "54016201",
    "neo_reference_id": "54016201",
    "name": "(2020 FH)",
    "designation": "2020 FH",
    "nasa_jpl_url": "http://ssd.jpl.nasa.gov/sbdb.cgi?sstr=54016201",
    "absolute_magnitude_h": 26.075,
    "estimated_diameter": {
        "kilometers": {
            "estimated_diameter_min": 0.0162014907,
            "estimated_diameter_max": 0.0362276346
        },
        "meters": {
            "estimated_diameter_min": 16.2014907286,
            "estimated_diameter_max": 36.2276346061
        },
        "miles": {
            "estimated_diameter_min": 0.0100671365,
            "estimated_diameter_max": 0.0225108015
        },
        "feet": {
            "estimated_diameter_min": 53.1544988422,
            "estimated_diameter_max": 118.857072721
        }
    },
    "is_potentially_hazardous_asteroid": false,
    "close_approach_data": [
        {
            "close_approach_date": "2020-03-18",
            "close_approach_date_full": "2020-Mar-18 10:15",
            "epoch_date_close_approach": 1584526500000,
            "relative_velocity": {
                "kilometers_per_second": "9.3685320296",
                "kilometers_per_hour": "33726.7153064643",
                "miles_per_hour": "20956.4692969528"
            },
            "miss_distance": {
                "astronomical": "0.0155062511",
                "lunar": "6.0319316779",
                "kilometers": "2319702.136245157",
                "miles": "1441396.0690388866"
            },
            "orbiting_body": "Earth"
        },
        {
            "close_approach_date": "2054-02-17",
            "close_approach_date_full": "2054-Feb-17 01:11",
            "epoch_date_close_approach": 2654903460000,
            "relative_velocity": {
                "kilometers_per_second": "15.5554348891",
                "kilometers_per_hour": "55999.5656007132",
                "miles_per_hour": "34795.9523033987"
            },
            "miss_distance": {
                "astronomical": "0.2722278007",
                "lunar": "105.8966144723",
                "kilometers": "40724699.139504509",
                "miles": "25305154.6296758642"
            },
            "orbiting_body": "Earth"
        },
        {
            "close_approach_date": "2117-09-25",
            "close_approach_date_full": "2117-Sep-25 01:51",
            "epoch_date_close_approach": 4661977860000,
            "relative_velocity": {
                "kilometers_per_second": "2.9274499172",
                "kilometers_per_hour": "10538.8197019098",
                "miles_per_hour": "6548.4127197783"
            },
            "miss_distance": {
                "astronomical": "1.978457027",
                "lunar": "769.619783503",
                "kilometers": "295972957.12573249",
                "miles": "183909067.581148762"
            },
            "orbiting_body": "Juptr"
        },
        {
            "close_approach_date": "2119-02-10",
            "close_approach_date_full": "2119-Feb-10 21:16",
            "epoch_date_close_approach": 4705506960000,
            "relative_velocity": {
                "kilometers_per_second": "19.1880382183",
                "kilometers_per_hour": "69076.9375860247",
                "miles_per_hour": "42921.7226906052"
            },
            "miss_distance": {
                "astronomical": "0.3977495928",
                "lunar": "154.7245915992",
                "kilometers": "59502491.876247336",
                "miles": "36973133.9848957968"
            },
            "orbiting_body": "Earth"
        }
    ],
    "orbital_data": {
        "orbit_id": "3",
        "orbit_determination_date": "2020-03-20 06:05:58",
        "first_observation_date": "2020-03-16",
        "last_observation_date": "2020-03-19",
        "data_arc_in_days": 3,
        "observations_used": 84,
        "orbit_uncertainty": "7",
        "minimum_orbit_intersection": ".0152299",
        "jupiter_tisserand_invariant": "3.653",
        "epoch_osculation": "2459000.5",
        "eccentricity": ".4979393158451876",
        "semi_major_axis": "2.002794861465033",
        "inclination": "11.37183370575413",
        "ascending_node_longitude": "356.1690035635895",
        "orbital_period": "1035.268808910876",
        "perihelion_distance": "1.005524558368877",
        "perihelion_argument": "190.7346525296643",
        "aphelion_distance": "3.000065164561189",
        "perihelion_time": "2458934.440437706590",
        "mean_anomaly": "22.97127298816821",
        "mean_motion": ".3477357734545554",
        "equinox": "J2000",
        "orbit_class": {
            "orbit_class_type": "APO",
            "orbit_class_description": "Near-Earth asteroid orbits which cross the Earth’s orbit similar to that of 1862 Apollo",
            "orbit_class_range": "a (semi-major axis) > 1.0 AU; q (perihelion) < 1.017 AU"
        }
    },
    "is_sentry_object": false
}